#aV2024  4  8  0  0  0.00000000     288 DD+AD WGS84 FIT  NGA
## 2309  86400.00000000   300.00000000 60408 0.0000000000000
+   32     1  2  3  4  5  6  7  8  9 10 11 12 13 14 15 16 17
+         18 19 20 21 22 23 24 25 26 27 28 29 30 31 32  0  0
+          0  0  0  0  0  0  0  0  0  0  0  0  0  0  0  0  0
+          0  0  0  0  0  0  0  0  0  0  0  0  0  0  0  0  0
+          0  0  0  0  0  0  0  0  0  0  0  0  0  0  0  0  0
++         2  2  2  2  2  2  2  2  2  2  2  2  2  2  2  2  2
++         2  2  2  2  2  2  2  2  2  2  2  2  2  2  2  0  0
++         0  0  0  0  0  0  0  0  0  0  0  0  0  0  0  0  0
++         0  0  0  0  0  0  0  0  0  0  0  0  0  0  0  0  0
++         0  0  0  0  0  0  0  0  0  0  0  0  0  0  0  0  0
%c cc cc ccc ccc cccc cccc cccc cccc ccccc ccccc ccccc ccccc
%c cc cc ccc ccc cccc cccc cccc cccc ccccc ccccc ccccc ccccc
%f  0.0000000  0.000000000  0.00000000000  0.000000000000000
%f  0.0000000  0.000000000  0.00000000000  0.000000000000000
%i    0    0    0    0      0      0      0      0         0
%i    0    0    0    0      0      0      0      0         0
/*      NGA, ST. LOUIS,MO.                                  
/*   EPHEMERIS COMPUTED FROM 2 DAYS OF DATA                 
/*   EPOCHA v9 SMOOTHER                                     
/*   G2296 IERS2010 SATIGS SATAPC                           
*  2024  4  8 11 35  0.00000000
P  1 -13500.292865 -11514.704021 -20228.014565    178.644001                    
V  1  24418.922276  -3920.702534 -13992.078598      0.023698                    
P  2  -2159.622135 -14723.302487 -21508.046537   -456.884798                    
V  2  27700.929700  -6554.706138   1934.378676      0.064022                    
P  3 -11094.545595 -22715.720856  -8500.022460    299.004748                    
V  3   8021.253234   7050.777214 -29712.641972      0.214824                    
P  4   -766.896953 -22671.224677  13725.856932    333.976905                    
V  4   8805.161493 -15217.685891 -24803.299602      0.088198                    
P  5   -436.718854  18666.320253  18678.027698   -168.376578                    
V  5 -17112.378130 -17011.084817  16535.594691     -0.013963                    
P  6 -25912.141132   5536.347494   2635.137727    331.602550                    
V  6  -3469.033320  -1285.413918 -32087.167987     -0.176850                    
P  7 -21369.133787  -7321.750412  14842.644558   -102.662215                    
V  7  17303.944013  -4631.383386  22965.435624     -0.085285                    
P  8   4974.746320 -25384.386711  -5022.193205    109.046460                    
V  8   5198.548368  -4903.968331  30999.221931      0.238138                    
P  9 -11029.214303 -12386.100489  20655.631735    152.996605                    
V  9   9689.058434 -24607.595600  -9598.629644      0.135220                    
P 10  19125.578902   4797.201396 -17741.122792     -6.607830                    
V 10  13489.180700  18376.985096  18977.265443     -0.039625                    
P 11 -19177.829880  11871.718631  14010.957825   -630.578165                    
V 11 -17876.639999    -71.423179 -24495.608967     -0.107724                    
P 12   8404.100165  23462.908038  -9551.280955   -494.681021                    
V 12  -8678.209550  -8199.123068 -28581.438238     -0.034765                    
P 13 -13620.642002  22596.870286   1424.755087    641.008020                    
V 13  -1362.538578  -3114.592841  32061.358082      0.031657                    
P 14 -20238.253113  -8325.221955 -15162.973203    371.084801                    
V 14 -10022.738064 -16595.427764  22248.365949      0.095665                    
P 15  -1603.687496  25957.377850  -5324.747035    146.215282                    
V 15  -4877.476809   5302.386844  30307.897928      0.040431                    
P 16   6644.247054 -15302.355294  20224.155305   -321.836758                    
V 16  15927.525252  21278.922487  11131.086510      0.092840                    
P 17 -16200.915787   1477.434363 -20608.635950    711.238242                    
V 17  10473.123594 -24977.575817  -9674.477591      0.002314                    
P 18  21885.890948   6362.896890  13806.509652   -590.767281                    
V 18 -16997.730734   4136.381699  24876.879881     -0.068386                    
P 19 -18001.108152  10204.496278 -16618.053588    465.291940                    
V 19   7806.433379 -19460.743940 -21001.356202      0.053285                    
P 20 -10597.117110  11200.644849  21686.060682    380.946245                    
V 20 -20655.904008 -18031.509358   -933.322958     -0.014020                    
P 21   3151.487811 -15621.339429 -20600.655212    128.080768                    
V 21  26910.424722  -5504.482415   9095.573966     -0.015859                    
P 22 -17164.282461   -821.889160 -19749.469847      3.622712                    
V 22 -13465.342460 -22394.031687  12655.818662     -0.056911                    
P 23  20383.472013  14951.074890  -8440.744348    195.982029                    
V 23   5499.266712   9354.285541  29579.098625      0.090924                    
P 24    401.284629  16230.828527 -21393.939601   -456.869364                    
V 24 -25679.420216   5983.780407   4553.373889     -0.046094                    
P 25  16622.378373  20888.648766  -1038.144525    493.286331                    
V 25  -2800.950301   1176.210313 -31326.243835      0.008681                    
P 26  15801.101790  -5538.492673  20531.585161    169.411972                    
V 26  17667.553428  19708.166522  -7856.136859     -0.049664                    
P 27  12752.854045 -22163.674544   6006.168716    -17.337302                    
V 27     35.980250   8649.388560  30819.412955     -0.024188                    
P 28  26104.824591  -4876.753691   -272.694652   -195.151677                    
V 28    210.431971   2804.838975 -31778.867896     -0.148793                    
P 29   8122.817106  15104.910443  20196.333205   -602.520568                    
V 29 -11911.204037  22868.721169 -12383.744937      0.011617                    
P 30 -26238.659467    348.433637   5097.008059   -408.261006                    
V 30   5688.047680  -4194.829994  30131.088441      0.054990                    
P 31  22896.434398  -9910.910611   9454.469685   -228.032924                    
V 31  12412.763344    765.328892 -28224.945115      0.000145                    
P 32  16618.930320  -4972.422207 -19844.253629   -617.802039                    
V 32  -7747.809408  24559.690073 -12707.856584     -0.006289                    
EOF
